[{"OBJECT_NAME":"STARLINK-30950","OBJECT_ID":"2023-183D","EPOCH":"2026-01-02T23:30:35.741376","MEAN_MOTION":15.27579263,"ECCENTRICITY":0.00020772,"INCLINATION":43.0027,"RA_OF_ASC_NODE":216.2244,"ARG_OF_PERICENTER":257.3653,"MEAN_ANOMALY":102.6967,"EPHEMERIS_TYPE":0,"CLASSIFICATION_TYPE":"U","NORAD_CAT_ID":58440,"ELEMENT_SET_NO":999,"REV_AT_EPOCH":11898,"BSTAR":7.8696733e-5,"MEAN_MOTION_DOT":1.904e-5,"MEAN_MOTION_DDOT":0},{"OBJECT_NAME":"STARLINK-30942","OBJECT_ID":"2023-183E","EPOCH":"2026-01-03T09:25:16.663872","MEAN_MOTION":15.0253866,"ECCENTRICITY":0.0001063,"INCLINATION":43.0036,"RA_OF_ASC_NODE":37.9797,"ARG_OF_PERICENTER":279.4055,"MEAN_ANOMALY":80.6667,"EPHEMERIS_TYPE":0,"CLASSIFICATION_TYPE":"U","NORAD_CAT_ID":58441,"ELEMENT_SET_NO":999,"REV_AT_EPOCH":11689,"BSTAR":0.00012957,"MEAN_MOTION_DOT":1.547e-5,"MEAN_MOTION_DDOT":0},{"OBJECT_NAME":"STARLINK-30959","OBJECT_ID":"2023-183F","EPOCH":"2026-01-03T10:51:24.925248","MEAN_MOTION":15.02536078,"ECCENTRICITY":0.0001152,"INCLINATION":43.0048,"RA_OF_ASC_NODE":37.5685,"ARG_OF_PERICENTER":274.7427,"MEAN_ANOMALY":85.3284,"EPHEMERIS_TYPE":0,"CLASSIFICATION_TYPE":"U","NORAD_CAT_ID":58442,"ELEMENT_SET_NO":999,"REV_AT_EPOCH":11690,"BSTAR":3.4999e-5,"MEAN_MOTION_DOT":2.69e-6,"MEAN_MOTION_DDOT":0},{"OBJECT_NAME":"STARLINK-30971","OBJECT_ID":"2023-183G","EPOCH":"2026-01-03T11:05:49.265664","MEAN_MOTION":15.02519125,"ECCENTRICITY":0.0001184,"INCLINATION":43.0045,"RA_OF_ASC_NODE":37.6352,"ARG_OF_PERICENTER":289.3,"MEAN_ANOMALY":70.7714,"EPHEMERIS_TYPE":0,"CLASSIFICATION_TYPE":"U","NORAD_CAT_ID":58443,"ELEMENT_SET_NO":999,"REV_AT_EPOCH":11690,"BSTAR":-0.00019446,"MEAN_MOTION_DOT":-2.828e-5,"MEAN_MOTION_DDOT":0},{"OBJECT_NAME":"STARLINK-30963","OBJECT_ID":"2023-183H","EPOCH":"2026-01-03T10:46:37.352352","MEAN_MOTION":15.02532858,"ECCENTRICITY":8.67e-5,"INCLINATION":43.0047,"RA_OF_ASC_NODE":37.5411,"ARG_OF_PERICENTER":271.7699,"MEAN_ANOMALY":88.3044,"EPHEMERIS_TYPE":0,"CLASSIFICATION_TYPE":"U","NORAD_CAT_ID":58444,"ELEMENT_SET_NO":999,"REV_AT_EPOCH":11690,"BSTAR":2.0212e-5,"MEAN_MOTION_DOT":6.9e-7,"MEAN_MOTION_DDOT":0},{"OBJECT_NAME":"STARLINK-30961","OBJECT_ID":"2023-183J","EPOCH":"2026-01-03T10:41:49.998048","MEAN_MOTION":15.02537592,"ECCENTRICITY":6.0e-5,"INCLINATION":43.0014,"RA_OF_ASC_NODE":37.5118,"ARG_OF_PERICENTER":278.5319,"MEAN_ANOMALY":81.5455,"EPHEMERIS_TYPE":0,"CLASSIFICATION_TYPE":"U","NORAD_CAT_ID":58445,"ELEMENT_SET_NO":999,"REV_AT_EPOCH":11690,"BSTAR":0.00020287,"MEAN_MOTION_DOT":2.538e-5,"MEAN_MOTION_DDOT":0},{"OBJECT_NAME":"STARLINK-30975","OBJECT_ID":"2023-183K","EPOCH":"2026-01-03T11:50:33.376704","MEAN_MOTION":15.02532372,"ECCENTRICITY":9.93e-5,"INCLINATION":43.0049,"RA_OF_ASC_NODE":37.8585,"ARG_OF_PERICENTER":295.9434,"MEAN_ANOMALY":64.1306,"EPHEMERIS_TYPE":0,"CLASSIFICATION_TYPE":"U","NORAD_CAT_ID":58446,"ELEMENT_SET_NO":999,"REV_AT_EPOCH":11692,"BSTAR":3.619e-5,"MEAN_MOTION_DOT":2.85e-6,"MEAN_MOTION_DDOT":0},{"OBJECT_NAME":"STARLINK-30976","OBJECT_ID":"2023-183L","EPOCH":"2026-01-03T10:27:27.662976","MEAN_MOTION":15.02536296,"ECCENTRICITY":0.0001576,"INCLINATION":43.0036,"RA_OF_ASC_NODE":37.475,"ARG_OF_PERICENTER":309.6497,"MEAN_ANOMALY":50.4206,"EPHEMERIS_TYPE":0,"CLASSIFICATION_TYPE":"U","NORAD_CAT_ID":58447,"ELEMENT_SET_NO":999,"REV_AT_EPOCH":11690,"BSTAR":4.6331e-5,"MEAN_MOTION_DOT":4.22e-6,"MEAN_MOTION_DDOT":0},{"OBJECT_NAME":"STARLINK-30926","OBJECT_ID":"2023-183M","EPOCH":"2026-01-03T11:58:22.094112","MEAN_MOTION":15.02532139,"ECCENTRICITY":0.0001098,"INCLINATION":43.0046,"RA_OF_ASC_NODE":37.0109,"ARG_OF_PERICENTER":252.8915,"MEAN_ANOMALY":107.1808,"EPHEMERIS_TYPE":0,"CLASSIFICATION_TYPE":"U","NORAD_CAT_ID":58448,"ELEMENT_SET_NO":999,"REV_AT_EPOCH":11691,"BSTAR":4.5978e-5,"MEAN_MOTION_DOT":4.17e-6,"MEAN_MOTION_DDOT":0},{"OBJECT_NAME":"STARLINK-30943","OBJECT_ID":"2023-183N","EPOCH":"2026-01-03T10:23:32.933184","MEAN_MOTION":15.02536589,"ECCENTRICITY":0.0001031,"INCLINATION":43.0053,"RA_OF_ASC_NODE":12.2384,"ARG_OF_PERICENTER":266.1019,"MEAN_ANOMALY":93.9706,"EPHEMERIS_TYPE":0,"CLASSIFICATION_TYPE":"U","NORAD_CAT_ID":58449,"ELEMENT_SET_NO":999,"REV_AT_EPOCH":11719,"BSTAR":0.00010706,"MEAN_MOTION_DOT":1.243e-5,"MEAN_MOTION_DDOT":0},{"OBJECT_NAME":"STARLINK-30946","OBJECT_ID":"2023-183P","EPOCH":"2026-01-03T02:04:59.192544","MEAN_MOTION":15.02546016,"ECCENTRICITY":0.0001531,"INCLINATION":43.008,"RA_OF_ASC_NODE":39.9826,"ARG_OF_PERICENTER":265.6485,"MEAN_ANOMALY":94.4182,"EPHEMERIS_TYPE":0,"CLASSIFICATION_TYPE":"U","NORAD_CAT_ID":58450,"ELEMENT_SET_NO":999,"REV_AT_EPOCH":11684,"BSTAR":9.8821413e-5,"MEAN_MOTION_DOT":1.132e-5,"MEAN_MOTION_DDOT":0},{"OBJECT_NAME":"STARLINK-30944","OBJECT_ID":"2023-183Q","EPOCH":"2026-01-03T10:37:01.976736","MEAN_MOTION":15.02534953,"ECCENTRICITY":0.0001124,"INCLINATION":43.0046,"RA_OF_ASC_NODE":37.4911,"ARG_OF_PERICENTER":270.9243,"MEAN_ANOMALY":89.1471,"EPHEMERIS_TYPE":0,"CLASSIFICATION_TYPE":"U","NORAD_CAT_ID":58451,"ELEMENT_SET_NO":999,"REV_AT_EPOCH":11687,"BSTAR":1.1789e-5,"MEAN_MOTION_DOT":-4.4e-7,"MEAN_MOTION_DDOT":0},{"OBJECT_NAME":"STARLINK-30928","OBJECT_ID":"2023-183R","EPOCH":"2026-01-03T02:33:35.903520","MEAN_MOTION":15.02533799,"ECCENTRICITY":8.026e-5,"INCLINATION":43.0042,"RA_OF_ASC_NODE":39.2717,"ARG_OF_PERICENTER":269.7189,"MEAN_ANOMALY":90.3561,"EPHEMERIS_TYPE":0,"CLASSIFICATION_TYPE":"U","NORAD_CAT_ID":58452,"ELEMENT_SET_NO":999,"REV_AT_EPOCH":11685,"BSTAR":1.969065e-5,"MEAN_MOTION_DOT":6.2e-7,"MEAN_MOTION_DDOT":0},{"OBJECT_NAME":"STARLINK-30957","OBJECT_ID":"2023-183S","EPOCH":"2026-01-03T11:48:57.389760","MEAN_MOTION":15.02535961,"ECCENTRICITY":9.91e-5,"INCLINATION":43.0039,"RA_OF_ASC_NODE":37.8574,"ARG_OF_PERICENTER":267.6195,"MEAN_ANOMALY":92.4534,"EPHEMERIS_TYPE":0,"CLASSIFICATION_TYPE":"U","NORAD_CAT_ID":58453,"ELEMENT_SET_NO":999,"REV_AT_EPOCH":11690,"BSTAR":0.00010796,"MEAN_MOTION_DOT":1.255e-5,"MEAN_MOTION_DDOT":0},{"OBJECT_NAME":"STARLINK-30966","OBJECT_ID":"2023-183T","EPOCH":"2026-01-03T03:45:31.358016","MEAN_MOTION":15.02536394,"ECCENTRICITY":9.721e-5,"INCLINATION":43.0045,"RA_OF_ASC_NODE":39.6386,"ARG_OF_PERICENTER":271.2515,"MEAN_ANOMALY":88.8216,"EPHEMERIS_TYPE":0,"CLASSIFICATION_TYPE":"U","NORAD_CAT_ID":58454,"ELEMENT_SET_NO":999,"REV_AT_EPOCH":11685,"BSTAR":2.3148881e-5,"MEAN_MOTION_DOT":1.09e-6,"MEAN_MOTION_DDOT":0},{"OBJECT_NAME":"STARLINK-30935","OBJECT_ID":"2023-183U","EPOCH":"2026-01-03T09:39:39.686688","MEAN_MOTION":15.02519619,"ECCENTRICITY":0.0001342,"INCLINATION":43.0066,"RA_OF_ASC_NODE":38.0441,"ARG_OF_PERICENTER":273.3277,"MEAN_ANOMALY":86.7412,"EPHEMERIS_TYPE":0,"CLASSIFICATION_TYPE":"U","NORAD_CAT_ID":58455,"ELEMENT_SET_NO":999,"REV_AT_EPOCH":11689,"BSTAR":0.00017198,"MEAN_MOTION_DOT":2.119e-5,"MEAN_MOTION_DDOT":0},{"OBJECT_NAME":"STARLINK-30960","OBJECT_ID":"2023-183V","EPOCH":"2026-01-03T12:00:01.999296","MEAN_MOTION":15.37997552,"ECCENTRICITY":0.0011674,"INCLINATION":42.9985,"RA_OF_ASC_NODE":327.6546,"ARG_OF_PERICENTER":162.9194,"MEAN_ANOMALY":45.6154,"EPHEMERIS_TYPE":0,"CLASSIFICATION_TYPE":"U","NORAD_CAT_ID":58456,"ELEMENT_SET_NO":999,"REV_AT_EPOCH":584,"BSTAR":0.0061469,"MEAN_MOTION_DOT":0.00242718,"MEAN_MOTION_DDOT":0},{"OBJECT_NAME":"STARLINK-30958","OBJECT_ID":"2023-183W","EPOCH":"2026-01-03T10:53:00.785184","MEAN_MOTION":15.02538957,"ECCENTRICITY":0.000108,"INCLINATION":43.0037,"RA_OF_ASC_NODE":37.5713,"ARG_OF_PERICENTER":278.853,"MEAN_ANOMALY":81.219,"EPHEMERIS_TYPE":0,"CLASSIFICATION_TYPE":"U","NORAD_CAT_ID":58457,"ELEMENT_SET_NO":999,"REV_AT_EPOCH":11690,"BSTAR":-3.1987e-5,"MEAN_MOTION_DOT":-6.36e-6,"MEAN_MOTION_DDOT":0},{"OBJECT_NAME":"STARLINK-30962","OBJECT_ID":"2023-183X","EPOCH":"2026-01-03T10:17:51.031968","MEAN_MOTION":15.02534055,"ECCENTRICITY":0.0001508,"INCLINATION":43.0055,"RA_OF_ASC_NODE":37.3919,"ARG_OF_PERICENTER":270.5811,"MEAN_ANOMALY":89.4859,"EPHEMERIS_TYPE":0,"CLASSIFICATION_TYPE":"U","NORAD_CAT_ID":58458,"ELEMENT_SET_NO":999,"REV_AT_EPOCH":11690,"BSTAR":1.5234e-5,"MEAN_MOTION_DOT":2.0e-8,"MEAN_MOTION_DDOT":0},{"OBJECT_NAME":"STARLINK-30977","OBJECT_ID":"2023-183Y","EPOCH":"2026-01-03T09:34:51.777696","MEAN_MOTION":15.02539296,"ECCENTRICITY":0.0001609,"INCLINATION":43.0044,"RA_OF_ASC_NODE":38.0187,"ARG_OF_PERICENTER":280.9871,"MEAN_ANOMALY":79.079,"EPHEMERIS_TYPE":0,"CLASSIFICATION_TYPE":"U","NORAD_CAT_ID":58459,"ELEMENT_SET_NO":999,"REV_AT_EPOCH":11689,"BSTAR":0.00016148,"MEAN_MOTION_DOT":1.978e-5,"MEAN_MOTION_DDOT":0},{"OBJECT_NAME":"STARLINK-30947","OBJECT_ID":"2023-186A","EPOCH":"2026-01-03T04:20:56.912064","MEAN_MOTION":15.02531173,"ECCENTRICITY":0.00016698,"INCLINATION":43.0059,"RA_OF_ASC_NODE":63.7246,"ARG_OF_PERICENTER":276.3007,"MEAN_ANOMALY":83.7646,"EPHEMERIS_TYPE":0,"CLASSIFICATION_TYPE":"U","NORAD_CAT_ID":58473,"ELEMENT_SET_NO":999,"REV_AT_EPOCH":11599,"BSTAR":-6.878251e-6,"MEAN_MOTION_DOT":-2.97e-6,"MEAN_MOTION_DDOT":0},{"OBJECT_NAME":"STARLINK-30995","OBJECT_ID":"2023-186B","EPOCH":"2026-01-03T12:00:01.999296","MEAN_MOTION":15.46528844,"ECCENTRICITY":0.0018299,"INCLINATION":42.9949,"RA_OF_ASC_NODE":252.644,"ARG_OF_PERICENTER":226.2739,"MEAN_ANOMALY":270.0168,"EPHEMERIS_TYPE":0,"CLASSIFICATION_TYPE":"U","NORAD_CAT_ID":58474,"ELEMENT_SET_NO":999,"REV_AT_EPOCH":591,"BSTAR":0.0070924,"MEAN_MOTION_DOT":0.00380781,"MEAN_MOTION_DDOT":0},{"OBJECT_NAME":"STARLINK-30941","OBJECT_ID":"2023-186C","EPOCH":"2026-01-03T04:11:22.021152","MEAN_MOTION":15.02491719,"ECCENTRICITY":9.003e-5,"INCLINATION":43.0038,"RA_OF_ASC_NODE":63.6731,"ARG_OF_PERICENTER":279.116,"MEAN_ANOMALY":80.9581,"EPHEMERIS_TYPE":0,"CLASSIFICATION_TYPE":"U","NORAD_CAT_ID":58475,"ELEMENT_SET_NO":999,"REV_AT_EPOCH":11599,"BSTAR":0.00048054308,"MEAN_MOTION_DOT":6.286e-5,"MEAN_MOTION_DDOT":0}]
